KUZGTU 1 (RS47S)        
1 57217U 23091AV  26193.21128907  .00007086  00000+0  24313-3 0  9994
2 57217  97.5057 257.9535 0010388  16.9424 343.2162 15.30426967168200
SONATE-2                
1 59112U 24043Q   26192.39059297  .00029289  00000+0  35468-3 0  9993
2 59112  97.5544 344.3084 0006813 117.4206 242.7744 15.60605233131667
MESAT1                  
1 60209U 24125G   26192.60174960  .00040433  00000+0  39351-3 0  9991
2 60209  97.2263  50.6867 0010962 123.9142 236.3162 15.66096766113381
OOV-CUBE (TUBSAT-30)    
1 60240U 24128F   26193.00684618  .00001128  00000+0  97999-4 0  9991
2 60240  61.9937 139.0215 0041539 139.3002 221.1206 15.02865918109841
COLIBRI-S (RS67S)       
1 61746U 24199M   26193.26822888  .00013934  00000+0  26089-3 0  9991
2 61746  97.2965  67.3650 0008629 172.3726 187.7658 15.48764303141294
HORS 3 (RS81S)          
1 61753U 24199U   26193.30127967  .00024569  00000+0  34418-3 0  9991
2 61753  97.2945  69.6702 0006823 164.4452 195.7014 15.56752694141468
HORS 4 (RS82S)          
1 61754U 24199V   26193.30901090  .00034224  00000+0  38992-3 0  9999
2 61754  97.2887  71.0537 0006711 156.2796 203.8773 15.62163367141567
SIT-2086                
1 61764U 24199AF  26193.31006454  .00026135  00000+0  39204-3 0  9990
2 61764  97.2903  70.0683 0007909 153.1941 206.9724 15.54866902138333
HYPERVIEW 1G (RS66S)    
1 61772U 24199AP  26193.27352926  .00172983  00000+0  75206-3 0  9997
2 61772  97.2811  74.4024 0008160 153.7535 206.4150 15.84304465138637
ALTAIR (RS65S)          
1 61779U 24199AW  26193.30317365  .00006066  00000+0  16700-3 0  9998
2 61779  97.3003  62.4925 0011727 207.3757 152.6872 15.37466865140974
ASRTU-1 (AO-123)        
1 61781U 24199AY  26193.31395001  .00004569  00000+0  13223-3 0  9998
2 61781  97.2972  61.7603 0012704 211.5520 148.4963 15.36026606137780
SAMSAT-IONOSPHERE (RS7*)
1 61784U 24199BB  26193.28860677  .00032318  00000+0  40105-3 0  9995
2 61784  97.2912  69.8032 0008900 169.8178 190.3261 15.59918996141474
RTU MIREA 1 (RS51S)     
1 61785U 24199BC  26193.31666927  .00044513  00000+0  47072-3 0  9992
2 61785  97.2896  70.8041 0008975 164.2927 195.8612 15.64006011138390
TEVEL2-4                
1 63213U 25052D   26193.14863208  .00010852  00000+0  31682-3 0  9990
2 63213  97.3883  89.5932 0003806  58.2703 301.8911 15.35493352 73949
TEVEL2-5                
1 63214U 25052E   26193.17203627  .00010707  00000+0  31447-3 0  9995
2 63214  97.3875  89.5570 0003832  59.0491 301.1129 15.35309356 73945
TEVEL2-6                
1 63215U 25052F   26193.18493848  .00011196  00000+0  32905-3 0  9996
2 63215  97.3878  89.5546 0003820  61.8174 298.3455 15.35273569 73943
TEVEL2-1                
1 63217U 25052H   26193.15771606  .00010310  00000+0  30872-3 0  9994
2 63217  97.3854  89.1215 0004471  66.2776 293.8936 15.34705870 73924
TEVEL2-3                
1 63218U 25052J   26193.15139874  .00010389  00000+0  31046-3 0  9990
2 63218  97.3855  89.1404 0004252  67.7736 292.3958 15.34767444 73928
TEVEL2-2                
1 63219U 25052K   26193.15786480  .00010291  00000+0  30804-3 0  9995
2 63219  97.3850  89.1247 0004532  66.8896 293.2824 15.34716519 73926
OTP-2                   
1 63235U 25052AB  26192.64986825  .00004286  00000+0  17810-3 0  9990
2 63235  97.3846  84.7167 0008306  80.9023 279.3154 15.24307968 73590
TEVEL2-9                
1 63237U 25052AD  26193.16807814  .00009399  00000+0  30009-3 0  9995
2 63237  97.3918  88.4550 0007902  65.0146 295.1916 15.32670115 73857
TEVEL2-7                
1 63238U 25052AE  26193.14863884  .00009273  00000+0  29903-3 0  9995
2 63238  97.3916  88.3405 0007985  65.2305 294.9767 15.32354538 73842
TEVEL2-8                
1 63239U 25052AF  26192.70001789  .00009255  00000+0  29864-3 0  9991
2 63239  97.3915  87.8685 0008055  67.3029 292.9064 15.32332149 73775
INNOSAT 16 (RS92S7)     
1 64878U 25155C   26193.32002257  .00003388  00000+0  13551-3 0  9992
2 64878  97.4577 160.3742 0012471  97.0146 263.2511 15.25719186 84501
GEOSCAN 6 (RS92S6)      
1 64879U 25155D   26193.22409004  .00006127  00000+0  20937-3 0  9993
2 64879  97.4564 161.8829 0009995  90.4887 269.7499 15.30617193 84592
GEOSCAN 1 (RS92S1)      
1 64880U 25155E   26193.21639499  .00006729  00000+0  22516-3 0  9990
2 64880  97.4561 162.0458 0009955  90.6717 269.5665 15.31261444 84602
239ALFEROV (RS61S)      
1 64881U 25155F   26193.21424164  .00008830  00000+0  27375-3 0  9995
2 64881  97.4560 162.6919 0009647  90.3576 269.8772 15.33615595 84646
GEOSCAN 2 (RS92S2)      
1 64890U 25155Q   26193.20576978  .00006775  00000+0  22491-3 0  9995
2 64890  97.4559 162.1973 0009164  80.7475 279.4802 15.31519605 84615
GEOSCAN 5 (RS92S5)      
1 64891U 25155R   26193.26338741  .00008812  00000+0  27065-3 0  9992
2 64891  97.4551 162.8885 0008670  94.5349 265.6885 15.33922900 84662
GEOSCAN 4 (RS92S4)      
1 64892U 25155S   26193.31019631  .00008756  00000+0  26755-3 0  9995
2 64892  97.4555 162.9916 0008596  94.6064 265.6161 15.34091127 84672
