OBJECT_NAME,OBJECT_ID,EPOCH,MEAN_MOTION,ECCENTRICITY,INCLINATION,RA_OF_ASC_NODE,ARG_OF_PERICENTER,MEAN_ANOMALY,EPHEMERIS_TYPE,CLASSIFICATION_TYPE,NORAD_CAT_ID,ELEMENT_SET_NO,REV_AT_EPOCH,BSTAR,MEAN_MOTION_DOT,MEAN_MOTION_DDOT
KUZGTU 1 (RS47S),2023-091AV,2026-07-12T05:04:15.375648,15.30426967,.00103885,97.5057,257.9535,16.9424,343.2162,0,U,57217,999,16820,.24312965E-3,.7086E-4,0
SONATE-2,2024-043Q,2026-07-11T09:22:27.232608,15.60605233,.00068135,97.5544,344.3084,117.4206,242.7744,0,U,59112,999,13166,.35467523E-3,.29289E-3,0
MESAT1,2024-125G,2026-07-11T14:26:31.165440,15.66096766,.00109622,97.2263,50.6867,123.9142,236.3162,0,U,60209,999,11338,.39351413E-3,.40433E-3,0
OOV-CUBE (TUBSAT-30),2024-128F,2026-07-12T00:09:51.509952,15.02865918,.00415391,61.9937,139.0215,139.3002,221.1206,0,U,60240,999,10984,.97999429E-4,.1128E-4,0
COLIBRI-S (RS67S),2024-199M,2026-07-12T06:26:14.975232,15.48764303,.0008629,97.2965,67.3650,172.3726,187.7658,0,U,61746,999,14129,.26089433E-3,.13934E-3,0
HORS 3 (RS81S),2024-199U,2026-07-12T07:13:50.563488,15.56752694,.00068236,97.2945,69.6702,164.4452,195.7014,0,U,61753,999,14146,.34418005E-3,.24569E-3,0
HORS 4 (RS82S),2024-199V,2026-07-12T07:24:58.541760,15.62163367,.00067113,97.2887,71.0537,156.2796,203.8773,0,U,61754,999,14156,.38991574E-3,.34224E-3,0
SIT-2086,2024-199AF,2026-07-12T07:26:29.576256,15.54866902,.00079093,97.2903,70.0683,153.1941,206.9724,0,U,61764,999,13833,.3920427E-3,.26135E-3,0
HYPERVIEW 1G (RS66S),2024-199AP,2026-07-12T06:33:52.928064,15.84304465,.00081606,97.2811,74.4024,153.7535,206.4150,0,U,61772,999,13863,.7520564E-3,.172983E-2,0
ALTAIR (RS65S),2024-199AW,2026-07-12T07:16:34.203360,15.37466865,.00117275,97.3003,62.4925,207.3757,152.6872,0,U,61779,999,14097,.16699985E-3,.6066E-4,0
ASRTU-1 (AO-123),2024-199AY,2026-07-12T07:32:05.280864,15.36026606,.00127047,97.2972,61.7603,211.5520,148.4963,0,U,61781,999,13778,.13223309E-3,.4569E-4,0
SAMSAT-IONOSPHERE (RS75S),2024-199BB,2026-07-12T06:55:35.624928,15.59918996,.00089006,97.2912,69.8032,169.8178,190.3261,0,U,61784,999,14147,.4010525E-3,.32318E-3,0
RTU MIREA 1 (RS51S),2024-199BC,2026-07-12T07:36:00.224928,15.64006011,.00089752,97.2896,70.8041,164.2927,195.8612,0,U,61785,999,13839,.47071783E-3,.44513E-3,0
TEVEL2-4,2025-052D,2026-07-12T03:34:01.811712,15.35493352,.00038061,97.3883,89.5932,58.2703,301.8911,0,U,63213,999,7394,.3168171E-3,.10852E-3,0
TEVEL2-5,2025-052E,2026-07-12T04:07:43.933728,15.35309356,.0003832,97.3875,89.5570,59.0491,301.1129,0,U,63214,999,7394,.31446899E-3,.10707E-3,0
TEVEL2-6,2025-052F,2026-07-12T04:26:18.684672,15.35273569,.00038208,97.3878,89.5546,61.8174,298.3455,0,U,63215,999,7394,.32905453E-3,.11196E-3,0
TEVEL2-1,2025-052H,2026-07-12T03:47:06.667584,15.34705870,.0004471,97.3854,89.1215,66.2776,293.8936,0,U,63217,999,7392,.30871936E-3,.1031E-3,0
TEVEL2-3,2025-052J,2026-07-12T03:38:00.851136,15.34767444,.00042525,97.3855,89.1404,67.7736,292.3958,0,U,63218,999,7392,.31046195E-3,.10389E-3,0
TEVEL2-2,2025-052K,2026-07-12T03:47:19.518720,15.34716519,.00045323,97.3850,89.1247,66.8896,293.2824,0,U,63219,999,7392,.30803975E-3,.10291E-3,0
OTP-2,2025-052AB,2026-07-11T15:35:48.616800,15.24307968,.00083062,97.3846,84.7167,80.9023,279.3154,0,U,63235,999,7359,.17810231E-3,.4286E-4,0
TEVEL2-9,2025-052AD,2026-07-12T04:02:01.951296,15.32670115,.00079021,97.3918,88.4550,65.0146,295.1916,0,U,63237,999,7385,.30008574E-3,.9399E-4,0
TEVEL2-7,2025-052AE,2026-07-12T03:34:02.395776,15.32354538,.00079853,97.3916,88.3405,65.2305,294.9767,0,U,63238,999,7384,.29902657E-3,.9273E-4,0
TEVEL2-8,2025-052AF,2026-07-11T16:48:01.545696,15.32332149,.00080555,97.3915,87.8685,67.3029,292.9064,0,U,63239,999,7377,.29863864E-3,.9255E-4,0
INNOSAT 16 (RS92S7),2025-155C,2026-07-12T07:40:49.950048,15.25719186,.00124719,97.4577,160.3742,97.0146,263.2511,0,U,64878,999,8450,.13550983E-3,.3388E-4,0
GEOSCAN 6 (RS92S6),2025-155D,2026-07-12T05:22:41.379456,15.30617193,.00099959,97.4564,161.8829,90.4887,269.7499,0,U,64879,999,8459,.20937078E-3,.6127E-4,0
GEOSCAN 1 (RS92S1),2025-155E,2026-07-12T05:11:36.527136,15.31261444,.00099557,97.4561,162.0458,90.6717,269.5665,0,U,64880,999,8460,.22515928E-3,.6729E-4,0
239ALFEROV (RS61S),2025-155F,2026-07-12T05:08:30.477696,15.33615595,.00096471,97.4560,162.6919,90.3576,269.8772,0,U,64881,999,8464,.27375287E-3,.883E-4,0
GEOSCAN 2 (RS92S2),2025-155Q,2026-07-12T04:56:18.508992,15.31519605,.0009164,97.4559,162.1973,80.7475,279.4802,0,U,64890,999,8461,.22491047E-3,.6775E-4,0
GEOSCAN 5 (RS92S5),2025-155R,2026-07-12T06:19:16.672224,15.33922900,.00086704,97.4551,162.8885,94.5349,265.6885,0,U,64891,999,8466,.27065336E-3,.8812E-4,0
GEOSCAN 4 (RS92S4),2025-155S,2026-07-12T07:26:40.961184,15.34091127,.0008596,97.4555,162.9916,94.6064,265.6161,0,U,64892,999,8467,.26755448E-3,.8756E-4,0
